{
  "type": "FeatureCollection",
  "features": [
    {
      "type": "Feature",
      "properties": {
        "norad_id": 66600,
        "name": "STARLINK-35980",
        "group": "last-30-days",
        "lat": 42.01342301191216,
        "lon": -61.15570915006417,
        "alt_km": 368.64262903185954,
        "timestamp": "2025-12-07T11:27:48.741295+00:00",
        "meta_object_name": "STARLINK-35980",
        "meta_object_id": "2025-270N",
        "meta_epoch": "2025-12-06T22:00:01.999584",
        "meta_mean_motion": 15.6715088,
        "meta_eccentricity": 0.00012309,
        "meta_inclination": 42.9986,
        "meta_ra_of_asc_node": 227.015,
        "meta_arg_of_pericenter": 263.6877,
        "meta_mean_anomaly": 249.2451,
        "meta_ephemeris_type": 0,
        "meta_classification_type": "U",
        "meta_norad_cat_id": 66600,
        "meta_element_set_no": 999,
        "meta_rev_at_epoch": 336,
        "meta_bstar": -0.020646369,
        "meta_mean_motion_dot": -0.02002163,
        "meta_mean_motion_ddot": 0,
        "tle_line1": "1 66600U 25270N   25340.91668981 -.02002163  00000+0 -20646-1 0  9990",
        "tle_line2": "2 66600  42.9986 227.0150 0001230 263.6877 249.2451 15.67150880  3360"
      },
      "geometry": {
        "type": "Point",
        "coordinates": [
          -61.15570915006417,
          42.01342301191216
        ]
      }
    },
    {
      "type": "Feature",
      "properties": {
        "norad_id": 66601,
        "name": "STARLINK-35978",
        "group": "last-30-days",
        "lat": 42.31972757436097,
        "lon": -58.60442522273129,
        "alt_km": 368.6362164120128,
        "timestamp": "2025-12-07T11:27:48.741308+00:00",
        "meta_object_name": "STARLINK-35978",
        "meta_object_id": "2025-270P",
        "meta_epoch": "2025-12-06T22:00:01.999584",
        "meta_mean_motion": 15.67149891,
        "meta_eccentricity": 0.00012848,
        "meta_inclination": 42.9987,
        "meta_ra_of_asc_node": 227.0101,
        "meta_arg_of_pericenter": 263.8792,
        "meta_mean_anomaly": 250.971,
        "meta_ephemeris_type": 0,
        "meta_classification_type": "U",
        "meta_norad_cat_id": 66601,
        "meta_element_set_no": 999,
        "meta_rev_at_epoch": 330,
        "meta_bstar": -0.020633463,
        "meta_mean_motion_dot": -0.02001033,
        "meta_mean_motion_ddot": 0,
        "tle_line1": "1 66601U 25270P   25340.91668981 -.02001033  00000+0 -20633-1 0  9992",
        "tle_line2": "2 66601  42.9987 227.0101 0001284 263.8792 250.9710 15.67149891  3306"
      },
      "geometry": {
        "type": "Point",
        "coordinates": [
          -58.60442522273129,
          42.31972757436097
        ]
      }
    },
    {
      "type": "Feature",
      "properties": {
        "norad_id": 66602,
        "name": "STARLINK-36050",
        "group": "last-30-days",
        "lat": 42.568508267970735,
        "lon": -56.0333465618321,
        "alt_km": 368.62448044439043,
        "timestamp": "2025-12-07T11:27:48.741318+00:00",
        "meta_object_name": "STARLINK-36050",
        "meta_object_id": "2025-270Q",
        "meta_epoch": "2025-12-06T22:00:01.999584",
        "meta_mean_motion": 15.67150368,
        "meta_eccentricity": 0.00013033,
        "meta_inclination": 42.9988,
        "meta_ra_of_asc_node": 227.0051,
        "meta_arg_of_pericenter": 261.6827,
        "meta_mean_anomaly": 255.0849,
        "meta_ephemeris_type": 0,
        "meta_classification_type": "U",
        "meta_norad_cat_id": 66602,
        "meta_element_set_no": 999,
        "meta_rev_at_epoch": 336,
        "meta_bstar": -0.020652472,
        "meta_mean_motion_dot": -0.02002701,
        "meta_mean_motion_ddot": 0,
        "tle_line1": "1 66602U 25270Q   25340.91668981 -.02002701  00000+0 -20652-1 0  9997",
        "tle_line2": "2 66602  42.9988 227.0051 0001303 261.6827 255.0849 15.67150368  3365"
      },
      "geometry": {
        "type": "Point",
        "coordinates": [
          -56.0333465618321,
          42.568508267970735
        ]
      }
    },
    {
      "type": "Feature",
      "properties": {
        "norad_id": 66603,
        "name": "STARLINK-36048",
        "group": "last-30-days",
        "lat": 42.759133858107646,
        "lon": -53.44150038066279,
        "alt_km": 368.64935173676076,
        "timestamp": "2025-12-07T11:27:48.741330+00:00",
        "meta_object_name": "STARLINK-36048",
        "meta_object_id": "2025-270R",
        "meta_epoch": "2025-12-06T22:00:01.999584",
        "meta_mean_motion": 15.67153024,
        "meta_eccentricity": 0.00013789,
        "meta_inclination": 42.9987,
        "meta_ra_of_asc_node": 226.9999,
        "meta_arg_of_pericenter": 268.4264,
        "meta_mean_anomaly": 250.2571,
        "meta_ephemeris_type": 0,
        "meta_classification_type": "U",
        "meta_norad_cat_id": 66603,
        "meta_element_set_no": 999,
        "meta_rev_at_epoch": 336,
        "meta_bstar": -0.02071167,
        "meta_mean_motion_dot": -0.02007996,
        "meta_mean_motion_ddot": 0,
        "tle_line1": "1 66603U 25270R   25340.91668981 -.02007996  00000+0 -20712-1 0  9996",
        "tle_line2": "2 66603  42.9987 226.9999 0001378 268.4264 250.2571 15.67153024  3367"
      },
      "geometry": {
        "type": "Point",
        "coordinates": [
          -53.44150038066279,
          42.759133858107646
        ]
      }
    },
    {
      "type": "Feature",
      "properties": {
        "norad_id": 66604,
        "name": "STARLINK-35977",
        "group": "last-30-days",
        "lat": 42.89110883353275,
        "lon": -50.83673153913625,
        "alt_km": 368.5663692326061,
        "timestamp": "2025-12-07T11:27:48.741341+00:00",
        "meta_object_name": "STARLINK-35977",
        "meta_object_id": "2025-270S",
        "meta_epoch": "2025-12-06T22:00:01.999584",
        "meta_mean_motion": 15.67152369,
        "meta_eccentricity": 0.00012796,
        "meta_inclination": 42.999,
        "meta_ra_of_asc_node": 226.9953,
        "meta_arg_of_pericenter": 264.7196,
        "meta_mean_anomaly": 255.8805,
        "meta_ephemeris_type": 0,
        "meta_classification_type": "U",
        "meta_norad_cat_id": 66604,
        "meta_element_set_no": 999,
        "meta_rev_at_epoch": 346,
        "meta_bstar": -0.020689052,
        "meta_mean_motion_dot": -0.02005944,
        "meta_mean_motion_ddot": 0,
        "tle_line1": "1 66604U 25270S   25340.91668981 -.02005944  00000+0 -20689-1 0  9991",
        "tle_line2": "2 66604  42.9990 226.9953 0001279 264.7196 255.8805 15.67152369  3468"
      },
      "geometry": {
        "type": "Point",
        "coordinates": [
          -50.83673153913625,
          42.89110883353275
        ]
      }
    },
    {
      "type": "Feature",
      "properties": {
        "norad_id": 66605,
        "name": "STARLINK-36052",
        "group": "last-30-days",
        "lat": 42.963356146492195,
        "lon": -48.2205651924036,
        "alt_km": 368.5483596795384,
        "timestamp": "2025-12-07T11:27:48.741354+00:00",
        "meta_object_name": "STARLINK-36052",
        "meta_object_id": "2025-270T",
        "meta_epoch": "2025-12-06T22:00:01.999584",
        "meta_mean_motion": 15.67149501,
        "meta_eccentricity": 0.00012839,
        "meta_inclination": 42.999,
        "meta_ra_of_asc_node": 226.9908,
        "meta_arg_of_pericenter": 261.7947,
        "meta_mean_anomaly": 260.7249,
        "meta_ephemeris_type": 0,
        "meta_classification_type": "U",
        "meta_norad_cat_id": 66605,
        "meta_element_set_no": 999,
        "meta_rev_at_epoch": 346,
        "meta_bstar": -0.02064244,
        "meta_mean_motion_dot": -0.02001768,
        "meta_mean_motion_ddot": 0,
        "tle_line1": "1 66605U 25270T   25340.91668981 -.02001768  00000+0 -20642-1 0  9991",
        "tle_line2": "2 66605  42.9990 226.9908 0001283 261.7947 260.7249 15.67149501  3466"
      },
      "geometry": {
        "type": "Point",
        "coordinates": [
          -48.2205651924036,
          42.963356146492195
        ]
      }
    },
    {
      "type": "Feature",
      "properties": {
        "norad_id": 66606,
        "name": "STARLINK-36063",
        "group": "last-30-days",
        "lat": 42.92811573767535,
        "lon": -42.98889285804459,
        "alt_km": 368.53649732734084,
        "timestamp": "2025-12-07T11:27:48.741367+00:00",
        "meta_object_name": "STARLINK-36063",
        "meta_object_id": "2025-270U",
        "meta_epoch": "2025-12-06T22:00:01.999584",
        "meta_mean_motion": 15.67150626,
        "meta_eccentricity": 0.00012559,
        "meta_inclination": 42.9988,
        "meta_ra_of_asc_node": 226.981,
        "meta_arg_of_pericenter": 262.4363,
        "meta_mean_anomaly": 263.9164,
        "meta_ephemeris_type": 0,
        "meta_classification_type": "U",
        "meta_norad_cat_id": 66606,
        "meta_element_set_no": 999,
        "meta_rev_at_epoch": 346,
        "meta_bstar": -0.020671198,
        "meta_mean_motion_dot": -0.02004279,
        "meta_mean_motion_ddot": 0,
        "tle_line1": "1 66606U 25270U   25340.91668981 -.02004279  00000+0 -20671-1 0  9994",
        "tle_line2": "2 66606  42.9988 226.9810 0001255 262.4363 263.9164 15.67150626  3466"
      },
      "geometry": {
        "type": "Point",
        "coordinates": [
          -42.98889285804459,
          42.92811573767535
        ]
      }
    }
  ]
}